
# Worst residual: 6.75 km
# MJD 57613.000000 (2016 Aug 13  0:00)
2015-019C = NORAD 41929 = S509356 = WJ2AD07
1 41929U 15019C   16226.49921083  .00000000  00000-0  00000-0 0   568
2 41929 045.4808 332.9644 6389842 028.8859 001.8588 00.27932653    04

# Worst residual: 4.97 km
# MJD 57614.000000 (2016 Aug 14  0:00)
2015-019C = NORAD 41929 = S509356 = WJ2AD07
1 41929U 15019C   16227.49921083  .00000000  00000-0  00000-0 0   569
2 41929 045.4626 332.9402 6394147 028.9167 102.2905 00.27916779    01

# Worst residual: 6.68 km
# MJD 57615.000000 (2016 Aug 15  0:00)
2015-019C = NORAD 41929 = S509356 = WJ2AD07
1 41929U 15019C   16228.49921083  .00000000  00000-0  00000-0 0   560
2 41929 045.4539 332.9208 6396954 028.9345 202.7648 00.27918446    07

# Worst residual: 13.42 km
# MJD 57616.000000 (2016 Aug 16  0:00)
2015-019C = NORAD 41929 = S509356 = WJ2AD07
1 41929U 15019C   16229.49921083  .00000000  00000-0  00000-0 0   561
2 41929 045.4393 332.9062 6401842 028.8755 303.4460 00.27880460    05

# Worst residual: 9.74 km
# MJD 57617.000000 (2016 Aug 17  0:00)
2015-019C = NORAD 41929 = S509356 = WJ2AD07
1 41929U 15019C   16230.49921083  .00000000  00000-0  00000-0 0   563
2 41929 045.4176 332.8834 6400338 028.9406 043.9023 00.27948687    00

# Worst residual: 7.55 km
# MJD 57618.000000 (2016 Aug 18  0:00)
2015-019C = NORAD 41929 = S509356 = WJ2AD07
1 41929U 15019C   16231.49921083  .00000000  00000-0  00000-0 0   564
2 41929 045.3926 332.8583 6404074 029.0190 144.2407 00.27916788    04

# Worst residual: 12.99 km
# MJD 57619.000000 (2016 Aug 19  0:00)
2015-019C = NORAD 41929 = S509356 = WJ2AD07
1 41929U 15019C   16232.49921083  .00000000  00000-0  00000-0 0   565
2 41929 045.3789 332.8392 6400489 029.0301 244.7033 00.27898539    03

# Worst residual: 34.34 km
# MJD 57620.000000 (2016 Aug 20  0:00)
2015-019C = NORAD 41929 = S509356 = WJ2AD07
1 41929U 15019C   16233.49921083  .00000000  00000-0  00000-0 0   566
2 41929 045.3624 332.8186 6413600 029.0484 345.2545 00.27846316    04

# Worst residual: 6.25 km
# MJD 57621.000000 (2016 Aug 21  0:00)
2015-019C = NORAD 41929 = S509356 = WJ2AD07
1 41929U 15019C   16234.49921083  .00000000  00000-0  00000-0 0   567
2 41929 045.3446 332.8061 6404903 029.1140 085.7168 00.27916546    04

# Worst residual: 3.13 km
# MJD 57622.000000 (2016 Aug 22  0:00)
2015-019C = NORAD 41929 = S509356 = WJ2AD07
1 41929U 15019C   16235.49921083  .00000000  00000-0  00000-0 0   568
2 41929 045.3361 332.7872 6405814 029.1504 186.1342 00.27914129    00

# Worst residual: 1.03 km
# MJD 57623.000000 (2016 Aug 23  0:00)
2015-019C = NORAD 41929 = S509356 = WJ2AD07
1 41929U 15019C   16236.49921083  .00000000  00000-0  00000-0 0   569
2 41929 045.3296 332.7783 6406537 029.1810 286.5409 00.27917061    08

# Worst residual: 10.44 km
# MJD 57624.000000 (2016 Aug 24  0:00)
2015-019C = NORAD 41929 = S509356 = WJ2AD07
1 41929U 15019C   16237.49921083  .00000000  00000-0  00000-0 0   560
2 41929 045.3207 332.7530 6408883 029.2230 027.0030 00.27911609    03

# Worst residual: 2.02 km
# MJD 57625.000000 (2016 Aug 25  0:00)
2015-019C = NORAD 41929 = S509356 = WJ2AD07
1 41929U 15019C   16238.49921083  .00000000  00000-0  00000-0 0   561
2 41929 045.2942 332.7330 6406038 029.2535 127.5297 00.27920478    09

# Worst residual: 2.56 km
# MJD 57626.000000 (2016 Aug 26  0:00)
2015-019C = NORAD 41929 = S509356 = WJ2AD07
1 41929U 15019C   16239.49921083  .00000000  00000-0  00000-0 0   562
2 41929 045.2675 332.7027 6404150 029.2813 228.0090 00.27912855    05

# Worst residual: 9.24 km
# MJD 57627.000000 (2016 Aug 27  0:00)
2015-019C = NORAD 41929 = S509356 = WJ2AD07
1 41929U 15019C   16240.49921083  .00000000  00000-0  00000-0 0   564
2 41929 045.2444 332.6707 6403071 029.3067 328.4416 00.27912452    06

# Worst residual: 14.20 km
# MJD 57628.000000 (2016 Aug 28  0:00)
2015-019C = NORAD 41929 = S509356 = WJ2AD07
1 41929U 15019C   16241.49921083  .00000000  00000-0  00000-0 0   565
2 41929 045.2271 332.6414 6405222 029.3036 068.9356 00.27937762    05

# Worst residual: 5.39 km
# MJD 57629.000000 (2016 Aug 29  0:00)
2015-019C = NORAD 41929 = S509356 = WJ2AD07
1 41929U 15019C   16242.49921083  .00000000  00000-0  00000-0 0   566
2 41929 045.2180 332.6173 6411590 029.3329 169.3762 00.27933474    09

# Worst residual: 23.12 km
# MJD 57630.000000 (2016 Aug 30  0:00)
2015-019C = NORAD 41929 = S509356 = WJ2AD07
1 41929U 15019C   16243.49921083  .00000000  00000-0  00000-0 0   567
2 41929 045.2035 332.6014 6409411 029.2486 270.1594 00.27896875    01

# Worst residual: 31.38 km
# MJD 57631.000000 (2016 Aug 31  0:00)
2015-019C = NORAD 41929 = S509356 = WJ2AD07
1 41929U 15019C   16244.49921083  .00000000  00000-0  00000-0 0   568
2 41929 045.1843 332.5797 6417640 029.3097 010.6228 00.27881895    03

# Worst residual: 15.22 km
# MJD 57632.000000 (2016 Sep  1  0:00)
2015-019C = NORAD 41929 = S509356 = WJ2AD07
1 41929U 15019C   16245.49921083  .00000000  00000-0  00000-0 0   569
2 41929 045.1413 332.5617 6415532 029.3654 111.0016 00.27895922    01

# Worst residual: 6.05 km
# MJD 57633.000000 (2016 Sep  2  0:00)
2015-019C = NORAD 41929 = S509356 = WJ2AD07
1 41929U 15019C   16246.49921083  .00000000  00000-0  00000-0 0   560
2 41929 045.0592 332.5004 6424727 029.4744 211.1646 00.27902706    05

# Worst residual: 34.67 km
# MJD 57634.000000 (2016 Sep  3  0:00)
2015-019C = NORAD 41929 = S509356 = WJ2AD07
1 41929U 15019C   16247.49921083  .00000000  00000-0  00000-0 0   561
2 41929 045.0213 332.4444 6436026 029.4717 311.8108 00.27865729    01

# Worst residual: 33.40 km
# MJD 57635.000000 (2016 Sep  4  0:00)
2015-019C = NORAD 41929 = S509356 = WJ2AD07
1 41929U 15019C   16248.49921083  .00000000  00000-0  00000-0 0   562
2 41929 045.0174 332.4312 6437144 029.6099 052.1548 00.27892721    03

# Worst residual: 5.72 km
# MJD 57636.000000 (2016 Sep  5  0:00)
2015-019C = NORAD 41929 = S509356 = WJ2AD07
1 41929U 15019C   16249.49921083  .00000000  00000-0  00000-0 0   563
2 41929 044.9683 332.4056 6430114 029.6019 152.8227 00.27922468    07

# Worst residual: 6.29 km
# MJD 57637.000000 (2016 Sep  6  0:00)
2015-019C = NORAD 41929 = S509356 = WJ2AD07
1 41929U 15019C   16250.49921083  .00000000  00000-0  00000-0 0   565
2 41929 044.9044 332.3359 6425356 029.6535 253.2802 00.27907474    03
